LEMUR-2-FINNIAN         
1 66782U 25276DX  26159.74353463  .00007148  00000+0  57464-3 0  9997
2 66782  97.5259 231.0053 0008577 114.2544 245.9577 15.00271962 18731
LEMUR-2-STARLIGHT       
1 66783U 25276DY  26159.15835773  .00005428  00000+0  45216-3 0  9993
2 66783  97.5274 230.1048 0015352 153.7795 206.4209 14.98948334 28845
LEMUR-2-TARTIFLETTE     
1 66784U 25276DZ  26160.42532858  .00005905  00000+0  49109-3 0  9999
2 66784  97.5280 231.3342 0013974 156.1665 204.0208 14.98988047 29034
LEMUR-2-VUKASIN         
1 66785U 25276EA  26160.42568155  .00005440  00000+0  43855-3 0  9995
2 66785  97.5310 231.6124 0006284 142.5144 217.6520 15.00281153 28985
LEMUR-2-HOTSPUR-TOM     
1 66786U 25276EB  26160.15025508  .00006265  00000+0  52223-3 0  9991
2 66786  97.5255 231.0522 0015359 152.0796 208.1254 14.98860681 28920
LEMUR-2-MYRA            
1 66787U 25276EC  26160.45645264  .00005916  00000+0  47734-3 0  9995
2 66787  97.5220 231.5921 0015666 167.1469 193.0158 15.00138577 29052
LEMUR-2 FIKRETDENGIZ    
1 67363U 26004A   26159.99920701  .00003500  00000+0  38447-3 0  9993
2 67363  97.8015 158.6834 0009419 156.8879 203.2764 14.88265150 22063
TWILIGHT-1 OBJECT B     
1 67364U 26004B   26160.22210465  .00001749  00000+0  19791-3 0  9995
2 67364  97.8059 158.9215 0009444 147.3595 212.8206 14.87675373 22109
LEMUR-2-MARIO-SOUSA     
1 67365U 26004C   26160.25274652  .00003468  00000+0  37929-3 0  9990
2 67365  97.7991 158.9296 0008997 156.7218 203.4408 14.88449517 22112
LEMUR-2-SONNENBLUME     
1 67367U 26004E   26160.25014220  .00002168  00000+0  24046-3 0  9997
2 67367  97.7984 158.9145 0008536 158.3621 201.7958 14.88275023 22114
LEMUR-2-WOBLER          
1 67368U 26004F   26160.24466730  .00002972  00000+0  32579-3 0  9997
2 67368  97.8039 159.0235 0008956 148.1642 212.0118 14.88462871 22117
LEMUR-2-GRAM-E-SUE      
1 67370U 26004H   26160.43679669  .00001816  00000+0  20155-3 0  9991
2 67370  97.7973 159.1128 0007540 158.0346 202.1195 14.88436807 22145
LEMUR-2-KATIE           
1 67387U 26004AA  26160.23076940  .00003710  00000+0  39038-3 0  9995
2 67387  97.8037 159.3436 0004739 109.1895 250.9836 14.89999040 22127
LEMUR-2-HCS-BAZUS       
1 67388U 26004AB  26159.75979162  .00005493  00000+0  57517-3 0  9991
2 67388  97.8026 158.8607 0004354 105.5742 254.5957 14.89994072 22050
